H1 CPF  1  HTS 2022  7 18 12  6991 larets           NONE
H2  0304206 5557    27944 2022 07 18  0  0  0 2022 07 23  0  0  0   180 1 1  0 0 0
H5  0.0560 
H9 
10 0 59781  33480.00000  0    1644401.041    6411326.207    2434094.523
10 0 59781  33660.00000  0    2014654.659    6662916.565    1141067.143
10 0 59781  33840.00000  0    2314556.415    6662145.189    -193977.175
10 0 59781  34020.00000  0    2526594.588    6411247.802   -1521891.865
10 0 59781  34200.00000  0    2636706.588    5922120.814   -2793870.866
10 0 59781  34380.00000  0    2635034.345    5215736.170   -3963303.330
10 0 59781  34560.00000  0    2516488.099    4321177.980   -4987518.993
10 0 59781  34740.00000  0    2281090.415    3274363.969   -5829340.749
10 0 59781  34920.00000  0    1934093.120    2116532.495   -6458391.665
10 0 59781  35100.00000  0    1485868.211     892570.106   -6852121.929
10 0 59781  35280.00000  0     951585.224    -350742.214   -6996538.015
10 0 59781  35460.00000  0     350686.378   -1566501.451   -6886634.377
10 0 59781  35640.00000  0    -293819.542   -2709415.572   -6526524.225
10 0 59781  35820.00000  0    -956221.223   -3737449.494   -5929285.238
10 0 59781  36000.00000  0   -1609105.217   -4613346.683   -5116515.871
10 0 59781  36180.00000  0   -2224460.586   -5305977.790   -4117609.908
10 0 59781  36360.00000  0   -2774854.802   -5791473.452   -2968754.189
10 0 59781  36540.00000  0   -3234632.375   -6054089.358   -1711668.041
10 0 59781  36720.00000  0   -3581084.272   -6086765.011    -392118.210
10 0 59781  36900.00000  0   -3795530.086   -5891339.677     941747.722
10 0 59781  37080.00000  0   -3864252.756   -5478403.849    2241181.637
10 0 59781  37260.00000  0   -3779235.940   -4866788.733    3458650.950
10 0 59781  37440.00000  0   -3538664.086   -4082719.756    4549607.240
10 0 59781  37620.00000  0   -3147160.912   -3158679.364    5474133.439
10 0 59781  37800.00000  0   -2615755.622   -2132036.958    6198401.205
10 0 59781  37980.00000  0   -1961580.612   -1043519.057    6695891.039
10 0 59781  38160.00000  0   -1207313.005      64419.710    6948343.348
10 0 59781  38340.00000  0    -380382.991    1149257.532    6946404.365
10 0 59781  38520.00000  0     488018.390    2170034.371    6689969.903
10 0 59781  38700.00000  0    1364110.976    3088904.753    6188215.141
10 0 59781  38880.00000  0    2212836.834    3872557.380    5459303.162
10 0 59781  39060.00000  0    2999268.294    4493458.953    4529776.293
10 0 59781  39240.00000  0    3690063.947    4930871.781    3433629.677
10 0 59781  39420.00000  0    4254909.038    5171600.626    2211092.292
10 0 59781  39600.00000  0    4667877.668    5210430.430     907136.369
10 0 59781  39780.00000  0    4908632.193    5050220.160    -430221.174
10 0 59781  39960.00000  0    4963400.824    4701645.926   -1751756.576
10 0 59781  40140.00000  0    4825673.828    4182600.663   -3008920.720
10 0 59781  40320.00000  0    4496587.424    3517294.846   -4155678.995
10 0 59781  40500.00000  0    3984974.340    2735108.328   -5150225.169
10 0 59781  40680.00000  0    3307090.680    1869259.940   -5956494.662
10 0 59781  40860.00000  0    2486042.190     955368.018   -6545425.633
10 0 59781  41040.00000  0    1550943.717      29973.908   -6895932.625
10 0 59781  41220.00000  0     535859.711    -870907.998   -6995583.196
10 0 59781  41400.00000  0    -521440.419   -1713167.190   -6840977.518
10 0 59781  41580.00000  0   -1580867.933   -2465854.646   -6437829.033
10 0 59781  41760.00000  0   -2601503.149   -3102292.627   -5800757.806
10 0 59781  41940.00000  0   -3543143.468   -3601006.028   -4952796.897
10 0 59781  42120.00000  0   -4367870.918   -3946451.490   -3924619.438
10 0 59781  42300.00000  0   -5041581.854   -4129514.455   -2753488.089
10 0 59781  42480.00000  0   -5535415.155   -4147751.412   -1481951.755
10 0 59781  42660.00000  0   -5827012.285   -4005361.232    -156322.969
10 0 59781  42840.00000  0   -5901544.278   -3712881.781    1175010.917
10 0 59781  43020.00000  0   -5752447.772   -3286621.850    2463380.419
10 0 59781  43200.00000  0   -5381821.109   -2747849.503    3661649.718
10 0 59781  43380.00000  0   -4800462.564   -2121782.869    4725970.464
10 0 59781  43560.00000  0   -4027548.189   -1436433.480    5617400.484
10 0 59781  43740.00000  0   -3089973.758    -721366.226    6303319.809
10 0 59781  43920.00000  0   -2021392.661      -6431.442    6758608.515
10 0 59781  44100.00000  0    -860983.366     679476.629    6966541.701
10 0 59781  44280.00000  0     347994.429    1309579.713    6919383.729
10 0 59781  44460.00000  0    1559808.127    1860261.034    6618677.234
10 0 59781  44640.00000  0    2727979.181    2311959.717    6075215.043
10 0 59781  44820.00000  0    3807073.255    2649881.294    5308694.075
10 0 59781  45000.00000  0    4754496.122    2864502.452    4347049.654
10 0 59781  45180.00000  0    5532223.153    2951850.105    3225478.491
10 0 59781  45360.00000  0    6108395.630    2913536.758    1985164.705
10 0 59781  45540.00000  0    6458689.630    2756545.108     671748.701
10 0 59781  45720.00000  0    6567392.302    2492772.623    -666401.653
10 0 59781  45900.00000  0    6428112.498    2138351.618   -1980043.935
10 0 59781  46080.00000  0    6044092.792    1712787.743   -3220939.679
10 0 59781  46260.00000  0    5428113.309    1237964.033   -4343680.853
10 0 59781  46440.00000  0    4601989.064     737062.449   -5307374.931
10 0 59781  46620.00000  0    3595703.407     233468.402   -6077113.555
10 0 59781  46800.00000  0    2446238.624    -250286.339   -6625182.484
10 0 59781  46980.00000  0    1196160.266    -693497.642   -6931984.904
10 0 59781  47160.00000  0    -107978.470   -1078143.467   -6986666.556
10 0 59781  47340.00000  0   -1417359.979   -1389588.620   -6787441.387
10 0 59781  47520.00000  0   -2682696.091   -1617121.271   -6341622.325
10 0 59781  47700.00000  0   -3856043.182   -1754308.603   -5665360.277
10 0 59781  47880.00000  0   -4892588.190   -1799164.277   -4783102.694
10 0 59781  48060.00000  0   -5752359.226   -1754123.622   -3726770.488
10 0 59781  48240.00000  0   -6401792.893   -1625824.906   -2534662.780
10 0 59781  48420.00000  0   -6815092.818   -1424703.178   -1250111.442
10 0 59781  48600.00000  0   -6975310.581   -1164411.067      80075.857
10 0 59781  48780.00000  0   -6875089.515    -861090.295    1407330.250
10 0 59781  48960.00000  0   -6517023.540    -532529.586    2683122.887
10 0 59781  49140.00000  0   -5913608.680    -197253.638    3860774.074
10 0 59781  49320.00000  0   -5086786.582     126411.881    4897190.613
10 0 59781  49500.00000  0   -4067104.986     421248.548    5754452.069
10 0 59781  49680.00000  0   -2892547.658     671983.631    6401187.632
10 0 59781  49860.00000  0   -1607084.858     866018.221    6813704.393
10 0 59781  50040.00000  0    -259004.657     994015.460    6976832.298
10 0 59781  50220.00000  0    1100906.735    1050326.296    6884464.056
10 0 59781  50400.00000  0    2421273.321    1033236.453    6539787.347
10 0 59781  50580.00000  0    3652071.681     945025.885    5955202.837
10 0 59781  50760.00000  0    4746547.320     791836.133    5151921.580
10 0 59781  50940.00000  0    5663034.240     583348.654    4159242.904
10 0 59781  51120.00000  0    6366612.706     332284.753    3013524.125
10 0 59781  51300.00000  0    6830523.138      53749.565    1756855.009
10 0 59781  51480.00000  0    7037260.199    -235554.821     435488.604
10 0 59781  51660.00000  0    6979289.307    -518204.122    -901913.797
10 0 59781  51840.00000  0    6659337.158    -776969.698   -2206147.374
10 0 59781  52020.00000  0    6090237.879    -995728.551   -3429344.259
10 0 59781  52200.00000  0    5294350.714   -1160315.198   -4526778.496
10 0 59781  52380.00000  0    4302590.924   -1259268.991   -5458514.563
10 0 59781  52560.00000  0    3153137.704   -1284442.227   -6190835.026
10 0 59781  52740.00000  0    1889889.912   -1231445.533   -6697402.369
10 0 59781  52920.00000  0     560748.387   -1099910.220   -6960129.703
10 0 59781  53100.00000  0    -784205.577    -893565.844   -6969752.588
10 0 59781  53280.00000  0   -2094572.843    -620131.765   -6726102.450
10 0 59781  53460.00000  0   -3321486.088    -291026.739   -6238084.474
10 0 59781  53640.00000  0   -4419391.151      79093.227   -5523365.727
10 0 59781  53820.00000  0   -5347718.801     472954.157   -4607783.369
10 0 59781  54000.00000  0   -6072394.132     871420.706   -3524472.880
10 0 59781  54180.00000  0   -6567128.829    1254366.742   -2312728.502
10 0 59781  54360.00000  0   -6814433.538    1601622.519   -1016617.588
10 0 59781  54540.00000  0   -6806299.005    1893955.123     316609.530
10 0 59781  54720.00000  0   -6544498.282    2114031.468    1638258.063
10 0 59781  54900.00000  0   -6040490.099    2247316.753    2899995.879
10 0 59781  55080.00000  0   -5314925.705    2282860.665    4055655.653
10 0 59781  55260.00000  0   -4396780.302    2213925.649    5062949.777
10 0 59781  55440.00000  0   -3322160.251    2038428.647    5885022.071
10 0 59781  55620.00000  0   -2132850.176    1759178.749    6491786.076
10 0 59781  55800.00000  0    -874658.266    1383898.065    6861006.497
10 0 59781  55980.00000  0     404364.090     925023.461    6979086.527
10 0 59781  56160.00000  0    1655755.827     399298.990    6841553.759
10 0 59781  56340.00000  0    2832479.049    -172828.734    6453238.771
10 0 59781  56520.00000  0    3890695.591    -767996.802    5828139.178
10 0 59781  56700.00000  0    4791430.672   -1360870.617    4988960.745
10 0 59781  56880.00000  0    5502059.599   -1925214.874    3966338.487
10 0 59781  57060.00000  0    5997559.869   -2435047.914    2797750.368
10 0 59781  57240.00000  0    6261465.249   -2865830.593    1526145.735
10 0 59781  57420.00000  0    6286468.188   -3195628.488     198338.373
10 0 59781  57600.00000  0    6074635.692   -3406186.286   -1136774.486
10 0 59781  57780.00000  0    5637219.019   -3483852.773   -2430086.947
99
